{
  "type": "FeatureCollection",
  "features": [
    {
      "type": "Feature",
      "properties": {
        "norad_id": 34079,
        "name": "IRIDIUM 33 DEB",
        "group": "iridium-33-debris",
        "lat": 34.971733681219035,
        "lon": 7.262706184423302,
        "alt_km": 613.6692336336446,
        "timestamp": "2025-12-21T09:37:23.039713+00:00",
        "meta_object_name": "IRIDIUM 33 DEB",
        "meta_object_id": "1997-051CN",
        "meta_epoch": "2025-12-21T01:41:36.962016",
        "meta_mean_motion": 14.83721839,
        "meta_eccentricity": 0.0004623,
        "meta_inclination": 86.3769,
        "meta_ra_of_asc_node": 4.8728,
        "meta_arg_of_pericenter": 338.2576,
        "meta_mean_anomaly": 93.2385,
        "meta_ephemeris_type": 0,
        "meta_classification_type": "U",
        "meta_norad_cat_id": 34079,
        "meta_element_set_no": 999,
        "meta_rev_at_epoch": 89101,
        "meta_bstar": 0.0010936,
        "meta_mean_motion_dot": 9.07e-05,
        "meta_mean_motion_ddot": 0,
        "tle_line1": "1 34079U 97051CN  25355.07056669  .00009070  00000+0  10936-2 0  9990",
        "tle_line2": "2 34079  86.3769   4.8728 0004623 338.2576  93.2385 14.83721839891017"
      },
      "geometry": {
        "type": "Point",
        "coordinates": [
          7.262706184423302,
          34.971733681219035
        ]
      }
    },
    {
      "type": "Feature",
      "properties": {
        "norad_id": 34088,
        "name": "IRIDIUM 33 DEB",
        "group": "iridium-33-debris",
        "lat": 13.491633627186639,
        "lon": 27.612607848987253,
        "alt_km": 597.0455398638105,
        "timestamp": "2025-12-21T09:37:23.039723+00:00",
        "meta_object_name": "IRIDIUM 33 DEB",
        "meta_object_id": "1997-051CX",
        "meta_epoch": "2025-12-21T01:45:27.065952",
        "meta_mean_motion": 14.91723187,
        "meta_eccentricity": 0.0006627,
        "meta_inclination": 86.3839,
        "meta_ra_of_asc_node": 26.8939,
        "meta_arg_of_pericenter": 150.3729,
        "meta_mean_anomaly": 264.499,
        "meta_ephemeris_type": 0,
        "meta_classification_type": "U",
        "meta_norad_cat_id": 34088,
        "meta_element_set_no": 999,
        "meta_rev_at_epoch": 88866,
        "meta_bstar": 0.0014454,
        "meta_mean_motion_dot": 0.00014591,
        "meta_mean_motion_ddot": 0,
        "tle_line1": "1 34088U 97051CX  25355.07322993  .00014591  00000+0  14454-2 0  9999",
        "tle_line2": "2 34088  86.3839  26.8939 0006627 150.3729 264.4990 14.91723187888660"
      },
      "geometry": {
        "type": "Point",
        "coordinates": [
          27.612607848987253,
          13.491633627186639
        ]
      }
    },
    {
      "type": "Feature",
      "properties": {
        "norad_id": 34091,
        "name": "IRIDIUM 33 DEB",
        "group": "iridium-33-debris",
        "lat": -84.10441621037748,
        "lon": -78.84701491964928,
        "alt_km": 605.4442247111392,
        "timestamp": "2025-12-21T09:37:23.039733+00:00",
        "meta_object_name": "IRIDIUM 33 DEB",
        "meta_object_id": "1997-051DA",
        "meta_epoch": "2025-12-20T22:42:25.956000",
        "meta_mean_motion": 14.82364714,
        "meta_eccentricity": 0.0034072,
        "meta_inclination": 86.3416,
        "meta_ra_of_asc_node": 63.0745,
        "meta_arg_of_pericenter": 263.6319,
        "meta_mean_anomaly": 96.1023,
        "meta_ephemeris_type": 0,
        "meta_classification_type": "U",
        "meta_norad_cat_id": 34091,
        "meta_element_set_no": 999,
        "meta_rev_at_epoch": 87988,
        "meta_bstar": 0.0029659,
        "meta_mean_motion_dot": 0.00024051,
        "meta_mean_motion_ddot": 0,
        "tle_line1": "1 34091U 97051DA  25354.94613375  .00024051  00000+0  29659-2 0  9990",
        "tle_line2": "2 34091  86.3416  63.0745 0034072 263.6319  96.1023 14.82364714879889"
      },
      "geometry": {
        "type": "Point",
        "coordinates": [
          -78.84701491964928,
          -84.10441621037748
        ]
      }
    },
    {
      "type": "Feature",
      "properties": {
        "norad_id": 34097,
        "name": "IRIDIUM 33 DEB",
        "group": "iridium-33-debris",
        "lat": 59.1214828445176,
        "lon": 171.2032762538374,
        "alt_km": 818.6890258848734,
        "timestamp": "2025-12-21T09:37:23.039744+00:00",
        "meta_object_name": "IRIDIUM 33 DEB",
        "meta_object_id": "1997-051DG",
        "meta_epoch": "2025-12-21T00:41:41.456256",
        "meta_mean_motion": 14.34837359,
        "meta_eccentricity": 0.0081651,
        "meta_inclination": 86.2,
        "meta_ra_of_asc_node": 357.7488,
        "meta_arg_of_pericenter": 335.0527,
        "meta_mean_anomaly": 24.6731,
        "meta_ephemeris_type": 0,
        "meta_classification_type": "U",
        "meta_norad_cat_id": 34097,
        "meta_element_set_no": 999,
        "meta_rev_at_epoch": 87238,
        "meta_bstar": 0.0010064,
        "meta_mean_motion_dot": 2.983e-05,
        "meta_mean_motion_ddot": 0,
        "tle_line1": "1 34097U 97051DG  25355.02895204  .00002983  00000+0  10064-2 0  9999",
        "tle_line2": "2 34097  86.2000 357.7488 0081651 335.0527  24.6731 14.34837359872387"
      },
      "geometry": {
        "type": "Point",
        "coordinates": [
          171.2032762538374,
          59.1214828445176
        ]
      }
    },
    {
      "type": "Feature",
      "properties": {
        "norad_id": 34145,
        "name": "IRIDIUM 33 DEB",
        "group": "iridium-33-debris",
        "lat": -81.99393899897909,
        "lon": 176.7750939021406,
        "alt_km": 796.2492021001326,
        "timestamp": "2025-12-21T09:37:23.039754+00:00",
        "meta_object_name": "IRIDIUM 33 DEB",
        "meta_object_id": "1997-051DY",
        "meta_epoch": "2025-12-20T22:25:09.621696",
        "meta_mean_motion": 14.42341127,
        "meta_eccentricity": 0.0055711,
        "meta_inclination": 86.2115,
        "meta_ra_of_asc_node": 328.8764,
        "meta_arg_of_pericenter": 67.7948,
        "meta_mean_anomaly": 292.9149,
        "meta_ephemeris_type": 0,
        "meta_classification_type": "U",
        "meta_norad_cat_id": 34145,
        "meta_element_set_no": 999,
        "meta_rev_at_epoch": 87756,
        "meta_bstar": 0.00076759,
        "meta_mean_motion_dot": 2.602e-05,
        "meta_mean_motion_ddot": 0,
        "tle_line1": "1 34145U 97051DY  25354.93413914  .00002602  00000+0  76759-3 0  9998",
        "tle_line2": "2 34145  86.2115 328.8764 0055711  67.7948 292.9149 14.42341127877568"
      },
      "geometry": {
        "type": "Point",
        "coordinates": [
          176.7750939021406,
          -81.99393899897909
        ]
      }
    },
    {
      "type": "Feature",
      "properties": {
        "norad_id": 34146,
        "name": "IRIDIUM 33 DEB",
        "group": "iridium-33-debris",
        "lat": 68.77775993238147,
        "lon": 156.3368488519549,
        "alt_km": 718.9431191831982,
        "timestamp": "2025-12-21T09:37:23.039765+00:00",
        "meta_object_name": "IRIDIUM 33 DEB",
        "meta_object_id": "1997-051DZ",
        "meta_epoch": "2025-12-20T10:36:37.304352",
        "meta_mean_motion": 14.49095208,
        "meta_eccentricity": 0.00262607,
        "meta_inclination": 86.283,
        "meta_ra_of_asc_node": 346.3974,
        "meta_arg_of_pericenter": 194.7947,
        "meta_mean_anomaly": 317.4256,
        "meta_ephemeris_type": 0,
        "meta_classification_type": "U",
        "meta_norad_cat_id": 34146,
        "meta_element_set_no": 999,
        "meta_rev_at_epoch": 88218,
        "meta_bstar": 0.00059944717,
        "meta_mean_motion_dot": 2.307e-05,
        "meta_mean_motion_ddot": 0,
        "tle_line1": "1 34146U 97051DZ  25354.44209843  .00002307  00000+0  59945-3 0  9999",
        "tle_line2": "2 34146  86.2830 346.3974 0026260 194.7947 317.4256 14.49095208882187"
      },
      "geometry": {
        "type": "Point",
        "coordinates": [
          156.3368488519549,
          68.77775993238147
        ]
      }
    },
    {
      "type": "Feature",
      "properties": {
        "norad_id": 34159,
        "name": "IRIDIUM 33 DEB",
        "group": "iridium-33-debris",
        "lat": -36.623276891378005,
        "lon": -132.7321839217174,
        "alt_km": 755.703365965227,
        "timestamp": "2025-12-21T09:37:23.039775+00:00",
        "meta_object_name": "IRIDIUM 33 DEB",
        "meta_object_id": "1997-051EN",
        "meta_epoch": "2025-12-21T03:36:30.705696",
        "meta_mean_motion": 14.38512066,
        "meta_eccentricity": 0.0026062,
        "meta_inclination": 86.3499,
        "meta_ra_of_asc_node": 44.6551,
        "meta_arg_of_pericenter": 258.1061,
        "meta_mean_anomaly": 101.7214,
        "meta_ephemeris_type": 0,
        "meta_classification_type": "U",
        "meta_norad_cat_id": 34159,
        "meta_element_set_no": 999,
        "meta_rev_at_epoch": 88080,
        "meta_bstar": 0.00026667,
        "meta_mean_motion_dot": 8.37e-06,
        "meta_mean_motion_ddot": 0,
        "tle_line1": "1 34159U 97051EN  25355.15035539  .00000837  00000+0  26667-3 0  9992",
        "tle_line2": "2 34159  86.3499  44.6551 0026062 258.1061 101.7214 14.38512066880803"
      },
      "geometry": {
        "type": "Point",
        "coordinates": [
          -132.7321839217174,
          -36.623276891378005
        ]
      }
    }
  ]
}